STARLINK-1922           
1 46753U 20074Q   26049.10631923  .00119213  00000+0  15197-2 0  9995
2 46753  53.0495  19.3050 0005589 346.6525  13.4338 15.58437555294150
STARLINK-1928           
1 46758U 20074V   26049.16668981  .00121811  00000+0  13349-2 0  9994
2 46758  53.0473  20.4152 0005331 359.1793  27.0352 15.62380722  5805
STARLINK-1832           
1 46780U 20074AT  26049.16668981  .00295988  00000+0  23667-2 0  9990
2 46780  53.0467   4.5379 0008396  58.4931 159.5030 15.69626184  5912
STARLINK-1835           
1 46782U 20074AV  26049.09973985  .00044614  00000+0  66542-3 0  9995
2 46782  53.0490   9.7221 0006316 327.6913  32.3709 15.54633989294280
STARLINK-1882           
1 46784U 20074AX  26049.14269424  .00108962  00000+0  14900-2 0  9996
2 46784  53.0569   9.9200 0009871  55.1789 305.0149 15.56568022294286
STARLINK-1893           
1 46786U 20074AZ  26049.09282727  .00077266  00000+0  16136-2 0  9998
2 46786  53.0541 357.7534 0004966  14.4342 345.6804 15.44846157294457
STARLINK-1931           
1 46790U 20074BD  26049.11547616  .00122508  00000+0  15029-2 0  9997
2 46790  53.0482  18.8660 0004193 352.7402   7.3549 15.59445202294155
STARLINK-1934           
1 46792U 20074BF  26049.16668981  .00309721  00000+0  23169-2 0  9991
2 46792  53.0466   3.8722 0005415  44.6675 228.9823 15.71206507  5983
STARLINK-1942           
1 46794U 20074BH  26049.12843446  .00028574  00000+0  63209-3 0  9994
2 46794  53.0487  27.3909 0004775 342.6538  17.4303 15.43604336294045
STARLINK-1944           
1 46796U 20074BK  26049.15211605  .00117141  00000+0  14080-2 0  9996
2 46796  53.0494   6.4004 0001810   1.7099 358.3920 15.60010575294330
COSMOS 2547 [GLONASS-K] 
1 46805U 20075A   26048.75168365  .00000048  00000+0  00000+0 0  9998
2 46805  64.5999 196.4580 0006414 228.0788 131.8314  2.13100358 41368
YAOGAN-30 08A           
1 46807U 20076A   26049.22936910  .00003177  00000+0  23974-3 0  9998
2 46807  34.9939  95.9435 0000706 257.8741 102.1888 15.01999585290210
YAOGAN-30 08B           
1 46808U 20076B   26049.20516947  .00003144  00000+0  23682-3 0  9991
2 46808  34.9944  95.8183 0001218  15.4151 344.6594 15.02065028290324
YAOGAN-30 08C           
1 46809U 20076C   26049.18431458  .00003721  00000+0  28034-3 0  9999
2 46809  34.9962  95.8324 0005667 113.3215 246.8090 15.01987336290231
TIANQI-6                
1 46810U 20076D   26049.13390520  .00004261  00000+0  28625-3 0  9996
2 46810  34.9995  58.6386 0011288 205.6095 154.4056 15.06202012290615
CE-SAT IIB              
1 46818U 20077F   26049.21435437  .00073009  00000+0  46649-3 0  9993
2 46818  97.2190 125.4853 0002793 221.7479 138.3575 15.76138634296427
NAVSTAR 80 (USA 309)    
1 46826U 20078A   26048.84587685  .00000054  00000+0  00000+0 0  9991
2 46826  54.0052 215.6162 0067493 203.9077 326.5329  2.00565656 39113
RISAT-2BR2              
1 46905U 20081A   26048.90683959  .00004012  00000+0  31028-3 0  9997
2 46905  36.8969 212.3917 0012945 257.0936 102.8359 15.01418334289530
KSM1-C                  
1 46906U 20081B   26049.18361051  .00009537  00000+0  38301-3 0  9993
2 46906  36.8945  72.4395 0004058 275.7059  84.3227 15.24441668290989
KSM1-D                  
1 46907U 20081C   26049.17033315  .00008406  00000+0  35564-3 0  9994
2 46907  36.8967  79.4108 0004909 298.2385  61.7867 15.22738332290939
KSM1-A                  
1 46912U 20081H   26049.19646025  .00008850  00000+0  36262-3 0  9999
2 46912  36.8967  73.9302 0000217 340.4907  19.5833 15.23805485291006
R2                      
1 46913U 20081J   26049.11550086  .00008916  00000+0  36977-3 0  9999
2 46913  36.8980  73.8630 0006290 335.6525  24.3925 15.23381521293800
KSM1-B                  
1 46914U 20081K   26049.15855075  .00008917  00000+0  37886-3 0  9991
2 46914  36.9020  79.8208 0005097 328.0932  31.9507 15.22569103294024
TIANTONG-1 2            
1 46916U 20082A   26048.99000780 -.00000351  00000+0  00000+0 0  9999
2 46916   0.9767 313.3620 0003553  20.2280 295.7223  1.00272857 19456
DRAGRACER 2 (AUGURY)    
1 46955U 20085AC  26049.05973070  .00030049  00000+0  33425-3 0  9991
2 46955  97.5828 235.8746 0005551 356.3436   3.7780 15.62819083293216
SENTINEL-6A             
1 46984U 20086A   26049.09778301 -.00000071  00000+0 -44493-4 0  9990
2 46984  66.0428  22.4017 0007880 270.7397  89.2715 12.80929483245079
STARLINK-1777           
1 47122U 20088A   26049.11023749  .00032645  00000+0  69320-3 0  9994
2 47122  53.0544  17.5591 0008661  69.9329 290.2608 15.44720905289054
STARLINK-1812           
1 47126U 20088E   26049.10626818  .00029165  00000+0  16121-2 0  9996
2 47126  53.0814  28.5957 0002855  68.7947 291.3351 15.13682447288902
STARLINK-1843           
1 47133U 20088M   26049.16668981  .00348181  00000+0  20005-2 0  9995
2 47133  53.0498 341.3932 0001443  18.5324  39.1794 15.77227881  5836
STARLINK-1845           
1 47135U 20088P   26049.10143992  .00039250  00000+0  66288-3 0  9999
2 47135  53.0548  11.7461 0001599  98.2489 261.8701 15.51260056289130
STARLINK-1856           
1 47143U 20088X   26049.16668981  .00071935  00000+0  14656-2 0  9991
2 47143  53.0541   6.5117 0009067  77.8777 270.2540 15.45573590  5924
STARLINK-1871           
1 47157U 20088AM  26049.18631757  .00001632  00000+0  68890-4 0  9997
2 47157  53.1574  26.9587 0001283  91.7429 268.3718 15.29356148288933
STARLINK-1873           
1 47158U 20088AN  26049.12694447  .00099653  00000+0  15411-2 0  9996
2 47158  53.0531   3.4596 0011130  74.4233 285.8004 15.53239562289254
STARLINK-1876           
1 47161U 20088AR  26049.13415551  .00094656  00000+0  14131-2 0  9994
2 47161  53.0529   6.6916 0007022  79.2321 280.9479 15.54276685289218
STARLINK-1888           
1 47171U 20088BB  26049.12737067  .00128412  00000+0  25534-2 0  9990
2 47171  53.0554  12.9013 0005314  79.9180 280.2425 15.46022206289120
STARLINK-1912           
1 47178U 20088BJ  26049.16668981  .00145732  00000+0  23698-2 0  9992
2 47178  53.0548  15.6370 0008905  82.1091 325.0418 15.51666648  5577
STARLINK-1913           
1 47179U 20088BK  26049.16668981 -.00015027  00000+0 -50933-3 0  9991
2 47179  53.1551  37.7154 0001631  89.5611  40.9530 15.29362598  5587
LUCAS (JDRS-1)          
1 47202U 20089A   26049.05451509 -.00000231  00000+0  00000+0 0  9999
2 47202   0.0517 280.5792 0002595  44.0717 293.7725  1.00272156 19220
FALCON EYE 2            
1 47226U 20090A   26049.16651596  .00001553  00000+0  18881-3 0  9994
2 47226  97.8567 125.5896 0001194  79.0730 281.0619 14.84902347282575
GONETS-M 20             
1 47227U 20091A   26049.19285507 -.00000044  00000+0 -39029-3 0  9997
2 47227  82.5062  16.3954 0022094  79.6982 280.6587 12.42888623236295
GONETS-M 21             
1 47228U 20091B   26049.16593308 -.00000060  00000+0 -50212-3 0  9991
2 47228  82.4988  15.1921 0015815  92.7120 267.5770 12.42880261236283
GONETS-M 22             
1 47229U 20091C   26049.13963435 -.00000047  00000+0 -40864-3 0  9998
2 47229  82.5045  16.0518 0022953  75.3172 285.0450 12.42886434236239
COSMOS 2548             
1 47230U 20091D   26049.19706890 -.00000053  00000+0 -45546-3 0  9995
2 47230  82.5023  15.6491 0016160  92.1785 268.1145 12.42926547236279
GAOFEN-14 01            
1 47231U 20092A   26049.22770964  .00005038  00000+0  20241-3 0  9995
2 47231  97.4867 119.4972 0006255 206.6525 153.4392 15.25387031289693
SXM-7                   
1 47240U 20096A   26048.52045826 -.00000201  00000+0  00000+0 0  9998
2 47240   0.0160 123.6962 0004872   3.2078 122.7392  1.00274424  6248
IPM 2 & BREEZE-M R/B    
1 47242U 20097A   26047.82187244 -.00000119  00000+0  00000+0 0  9992
2 47242   5.0366  78.2052 0083557 275.2083  84.0487  0.95298348 18121
CMS-01                  
1 47256U 20099A   26049.05295509 -.00000160  00000+0  00000+0 0  9996
2 47256   0.0733  94.9315 0006746 190.7135 324.4151  1.00270542 19000
ONEWEB-0102             
1 47258U 20100A   26048.44161825  .00000238  00000+0  62483-3 0  9998
2 47258  87.8966  14.4480 0001700  83.2237 276.9085 13.12442311249022
ONEWEB-0109             
1 47259U 20100B   26048.45007818 -.00000093  00000+0 -29479-3 0  9990
2 47259  87.8975  14.4190 0001936  84.0844 276.0506 13.12443036248859
ONEWEB-0110             
1 47260U 20100C   26048.40095745 -.00000244  00000+0 -71396-3 0  9996
2 47260  87.8973  14.4136 0001635  84.7554 275.3761 13.12444050249011
ONEWEB-0111             
1 47261U 20100D   26048.43144979  .00000344  00000+0  92187-3 0  9994
2 47261  87.8974  14.4258 0001783  79.8325 280.3005 13.12442426248856
ONEWEB-0114             
1 47262U 20100E   26048.84312656 -.00000351  00000+0 -10121-2 0  9996
2 47262  87.8973  14.3392 0002178  80.4853 279.6521 13.12444251248860
ONEWEB-0117             
1 47263U 20100F   26048.45346612 -.00000200  00000+0 -59215-3 0  9994
2 47263  87.8972  14.4122 0001856  82.1366 277.9973 13.12442863248827
ONEWEB-0118             
1 47264U 20100G   26048.86852454 -.00000195  00000+0 -57739-3 0  9998
2 47264  87.8977  14.3317 0002049  74.8140 285.3215 13.12442389249074
ONEWEB-0119             
1 47265U 20100H   26048.43653581  .00000314  00000+0  83822-3 0  9995
2 47265  87.8964  14.4446 0001891  83.4903 276.6441 13.12442935248993
ONEWEB-0120             
1 47266U 20100J   26048.46037670 -.00000298  00000+0 -86259-3 0  9994
2 47266  87.8965  14.4410 0001956  84.3384 275.7967 13.12443754249029
ONEWEB-0121             
1 47267U 20100K   26048.98204683  .00000044  00000+0  86348-4 0  9999
2 47267  87.8976  14.3117 0001642  80.3803 279.7511 13.12442480249001
ONEWEB-0122             
1 47268U 20100L   26048.44246014  .00000197  00000+0  51288-3 0  9998
2 47268  87.8976  14.4205 0001845  85.5143 274.6196 13.12442762248847
ONEWEB-0123             
1 47269U 20100M   26048.43822736  .00000277  00000+0  73386-3 0  9991
2 47269  87.8964  14.4430 0001944  78.5663 281.5684 13.12443021248987
